LEMUR-2-STARLIGHT       
1 66783U 25276DY  26176.71394497  .00008026  00000+0  66304-3 0  9995
2 66783  97.5246 247.0614 0014735 103.8149 256.4715 14.99129094 31478
LEMUR-2-TARTIFLETTE     
1 66784U 25276DZ  26176.71229682  .00006677  00000+0  55249-3 0  9995
2 66784  97.5250 247.0674 0013711 110.7538 249.5156 14.99143036 31476
LEMUR-2-VUKASIN         
1 66785U 25276EA  26176.43182049  .00001511  00000+0  12471-3 0  9992
2 66785  97.5298 247.1136 0005449 103.8421 256.3409 15.00421204 31382
LEMUR-2-HOTSPUR-TOM     
1 66786U 25276EB  26176.77220168  .00006667  00000+0  55289-3 0  9996
2 66786  97.5245 247.1045 0014831 102.7720 257.5162 14.99043345 31415
LEMUR-2-MYRA            
1 66787U 25276EC  26176.73064322  .00008911  00000+0  71176-3 0  9998
2 66787  97.5221 247.3313 0017573 113.9414 246.3653 15.00358491 31493
LEMUR-2 FIKRETDENGIZ    
1 67363U 26004A   26176.53805749  .00004625  00000+0  50452-3 0  9995
2 67363  97.8016 174.9677 0010500 109.5937 250.6414 14.88380388 24525
TWILIGHT-1 OBJECT B     
1 67364U 26004B   26176.49881617  .00001813  00000+0  20467-3 0  9998
2 67364  97.8064 174.9406 0010241 100.9909 259.2460 14.87728978 24521
LEMUR-2-MARIO-SOUSA     
1 67365U 26004C   26176.58781919  .00004897  00000+0  53134-3 0  9995
2 67365  97.7984 175.0123 0010077 110.3005 249.9296 14.88575334 24541
LEMUR-2-SONNENBLUME     
1 67367U 26004E   26176.72184473  .00003013  00000+0  33108-3 0  9993
2 67367  97.7984 175.1255 0009633 111.4546 248.7698 14.88356427 24563
LEMUR-2-WOBLER          
1 67368U 26004F   26176.51248685  .00003795  00000+0  41317-3 0  9995
2 67368  97.8039 175.0501 0009950 102.9849 257.2479 14.88568845 24530
LEMUR-2-GRAM-E-SUE      
1 67370U 26004H   26176.57066045  .00002374  00000+0  26116-3 0  9994
2 67370  97.7972 174.9924 0008702 112.9572 247.2564 14.88505362 24543
LEMUR-2-KATIE           
1 67387U 26004AA  26176.54903144  .00004077  00000+0  42736-3 0  9997
2 67387  97.8034 175.4575 0004759  75.8017 284.3729 14.90096217 24551
LEMUR-2-HCS-BAZUS       
1 67388U 26004AB  26176.81649332  .00006382  00000+0  66467-3 0  9992
2 67388  97.8021 175.7019 0004254  74.2807 285.8880 14.90147852 24594
