OBJECT_NAME,OBJECT_ID,EPOCH,MEAN_MOTION,ECCENTRICITY,INCLINATION,RA_OF_ASC_NODE,ARG_OF_PERICENTER,MEAN_ANOMALY,EPHEMERIS_TYPE,CLASSIFICATION_TYPE,NORAD_CAT_ID,ELEMENT_SET_NO,REV_AT_EPOCH,BSTAR,MEAN_MOTION_DOT,MEAN_MOTION_DDOT
LEMUR-2-STARLIGHT,2025-276DY,2026-06-25T17:08:04.845408,14.99129094,.0014735,97.5246,247.0614,103.8149,256.4715,0,U,66783,999,3147,.66304E-3,.8026E-4,0
LEMUR-2-TARTIFLETTE,2025-276DZ,2026-06-25T17:05:42.445248,14.99143036,.0013711,97.5250,247.0674,110.7538,249.5156,0,U,66784,999,3147,.55249E-3,.6677E-4,0
LEMUR-2-VUKASIN,2025-276EA,2026-06-25T10:21:49.290336,15.00421204,.0005449,97.5298,247.1136,103.8421,256.3409,0,U,66785,999,3138,.12471E-3,.1511E-4,0
LEMUR-2-HOTSPUR-TOM,2025-276EB,2026-06-25T18:31:58.225152,14.99043345,.0014831,97.5245,247.1045,102.7720,257.5162,0,U,66786,999,3141,.55289E-3,.6667E-4,0
LEMUR-2-MYRA,2025-276EC,2026-06-25T17:32:07.574208,15.00358491,.0017573,97.5221,247.3313,113.9414,246.3653,0,U,66787,999,3149,.71176E-3,.8911E-4,0
LEMUR-2 FIKRETDENGIZ,2026-004A,2026-06-25T12:54:48.167136,14.88380388,.00105,97.8016,174.9677,109.5937,250.6414,0,U,67363,999,2452,.50452E-3,.4625E-4,0
TWILIGHT-1 OBJECT B,2026-004B,2026-06-25T11:58:17.717088,14.87728978,.0010241,97.8064,174.9406,100.9909,259.2460,0,U,67364,999,2452,.20467E-3,.1813E-4,0
LEMUR-2-MARIO-SOUSA,2026-004C,2026-06-25T14:06:27.578016,14.88575334,.0010077,97.7984,175.0123,110.3005,249.9296,0,U,67365,999,2454,.53134E-3,.4897E-4,0
LEMUR-2-SONNENBLUME,2026-004E,2026-06-25T17:19:27.384672,14.88356427,.0009633,97.7984,175.1255,111.4546,248.7698,0,U,67367,999,2456,.33108E-3,.3013E-4,0
LEMUR-2-WOBLER,2026-004F,2026-06-25T12:17:58.863840,14.88568845,.000995,97.8039,175.0501,102.9849,257.2479,0,U,67368,999,2453,.41317E-3,.3795E-4,0
LEMUR-2-GRAM-E-SUE,2026-004H,2026-06-25T13:41:45.062880,14.88505362,.0008702,97.7972,174.9924,112.9572,247.2564,0,U,67370,999,2454,.26116E-3,.2374E-4,0
LEMUR-2-KATIE,2026-004AA,2026-06-25T13:10:36.316416,14.90096217,.0004759,97.8034,175.4575,75.8017,284.3729,0,U,67387,999,2455,.42736E-3,.4077E-4,0
LEMUR-2-HCS-BAZUS,2026-004AB,2026-06-25T19:35:45.022848,14.90147852,.0004254,97.8021,175.7019,74.2807,285.8880,0,U,67388,999,2459,.66467E-3,.6382E-4,0
